NORAD_CAT_ID,OBJECT_NAME,OBJECT_TYPE,EPOCH,MEAN_MOTION,ECCENTRICITY,INCLINATION,RA_OF_ASC_NODE,ARG_OF_PERICENTER,MEAN_ANOMALY,BSTAR,MEAN_MOTION_DOT,MEAN_MOTION_DDOT,TLE_LINE0,TLE_LINE1,TLE_LINE2,SEMIMAJOR_AXIS,PERIOD,APOGEE,PERIGEE,DECAYED
56807.0,STARLINK-6073,PAYLOAD,2024-06-04 05:30:32,14.98328388,0.0003074,69.9986,146.6765,271.4323,88.6484,3.7329e-05,3.52e-06,0.0,0 STARLINK-6073,1 56807U 23078AS  24156.22954598  .00000352  00000-0  37329-4 0  9996,2 56807  69.9986 146.6765 0003074 271.4323  88.6484 14.98328388 57055,6950.198,96.107,574.199,569.926,0.0
56807.0,STARLINK-6073,PAYLOAD,2024-06-04 08:42:48,14.98328427,0.0003077,69.9986,146.3398,271.5005,88.5802,3.5469e-05,3.3e-06,0.0,0 STARLINK-6073,1 56807U 23078AS  24156.36306606  .00000330  00000-0  35469-4 0  9991,2 56807  69.9986 146.3398 0003077 271.5005  88.5802 14.98328427 56815,6950.198,96.107,574.201,569.924,0.0
56807.0,STARLINK-6073,PAYLOAD,2024-06-04 16:43:29,14.98328784,0.000302,69.9987,145.4981,270.5729,89.5084,1.108e-05,3.9e-07,0.0,0 STARLINK-6073,1 56807U 23078AS  24156.69686668  .00000039  00000-0  11080-4 0  9995,2 56807  69.9987 145.4981 0003020 270.5729  89.5084 14.98328784 56868,6950.197,96.107,574.161,569.963,0.0
56807.0,STARLINK-6073,PAYLOAD,2024-06-05 05:32:33,14.98331425,0.0003034,69.9986,144.1515,270.0645,90.0167,1.9601e-05,1.41e-06,0.0,0 STARLINK-6073,1 56807U 23078AS  24157.23094425  .00000141  00000-0  19601-4 0  9991,2 56807  69.9986 144.1515 0003034 270.0645  90.0167 14.98331425 57207,6950.188,96.107,574.162,569.945,0.0
56807.0,STARLINK-6073,PAYLOAD,2024-06-05 08:44:49,14.98330888,0.0003045,69.9986,143.8147,269.9784,90.1026,1.3018e-05,6.2e-07,0.0,0 STARLINK-6073,1 56807U 23078AS  24157.36446461  .00000062  00000-0  13018-4 0  9994,2 56807  69.9986 143.8147 0003045 269.9784  90.1026 14.98330888 56966,6950.19,96.107,574.171,569.939,0.0
56807.0,STARLINK-6073,PAYLOAD,2024-06-05 23:10:02,14.98328486,0.0003052,69.9984,142.2997,269.7099,90.3711,-5.3279e-06,-1.57e-06,0.0,0 STARLINK-6073,1 56807U 23078AS  24157.96530605 -.00000157  00000-0 -53279-5 0  9995,2 56807  69.9984 142.2997 0003052 269.7099  90.3711 14.98328486 57050,6950.198,96.107,574.184,569.941,0.0
56807.0,STARLINK-6073,PAYLOAD,2024-06-06 05:34:34,14.98330007,0.0003043,69.9985,141.6266,269.9693,90.1118,3.5939e-07,-8.9e-07,0.0,0 STARLINK-6073,1 56807U 23078AS  24158.23234500 -.00000089  00000-0  35939-6 0  9998,2 56807  69.9985 141.6266 0003043 269.9693  90.1118 14.98330007 57359,6950.193,96.107,574.173,569.943,0.0
56807.0,STARLINK-6073,PAYLOAD,2024-06-06 08:46:50,14.98331283,0.0003037,69.9985,141.2899,270.0117,90.0694,1.4289e-05,7.7e-07,0.0,0 STARLINK-6073,1 56807U 23078AS  24158.36586373  .00000077  00000-0  14289-4 0  9999,2 56807  69.9985 141.2899 0003037 270.0117  90.0694 14.98331283 57113,6950.189,96.107,574.165,569.943,0.0
56807.0,STARLINK-6073,PAYLOAD,2024-06-07 08:48:51,14.98331761,0.0003024,69.9986,138.765,270.1068,89.9744,5.1129e-06,-3.2e-07,0.0,0 STARLINK-6073,1 56807U 23078AS  24159.36726303 -.00000032  00000-0  51129-5 0  9996,2 56807  69.9986 138.7650 0003024 270.1068  89.9744 14.98331761 57521,6950.187,96.107,574.154,569.951,0.0
56807.0,STARLINK-6073,PAYLOAD,2024-06-07 21:37:55,14.98331098,0.0002975,69.9988,137.4184,270.6358,89.446,2.4537e-05,2e-06,0.0,0 STARLINK-6073,1 56807U 23078AS  24159.90134239  .00000200  00000-0  24537-4 0  9995,2 56807  69.9988 137.4184 0002975 270.6358  89.4460 14.98331098 57345,6950.189,96.107,574.122,569.987,0.0
56807.0,STARLINK-6073,PAYLOAD,2024-06-08 08:50:51,14.9833629,0.0002921,69.9989,136.24,270.7682,89.3142,7.5112e-05,8.03e-06,0.0,0 STARLINK-6073,1 56807U 23078AS  24160.36865666  .00000803  00000-0  75112-4 0  9996,2 56807  69.9989 136.2400 0002921 270.7682  89.3142 14.98336290 57677,6950.173,96.107,574.069,570.008,0.0
56807.0,STARLINK-6073,PAYLOAD,2024-06-08 15:15:23,14.98420025,0.0002734,70.0017,135.5638,292.746,67.341,-0.0016362,-0.00019606,0.0,0 STARLINK-6073,1 56807U 23078AS  24160.63568316 -.00019606  00000-0 -16362-2 0  9991,2 56807  70.0017 135.5638 0002734 292.7460  67.3410 14.98420025 57716,6949.915,96.101,573.68,569.879,0.0
56807.0,STARLINK-6073,PAYLOAD,2024-06-09 04:04:29,14.98326073,0.0002874,69.9994,134.221,271.1143,88.9687,-4.7497e-05,-6.6e-06,0.0,0 STARLINK-6073,1 56807U 23078AS  24161.16978688 -.00000660  00000-0 -47497-4 0  9992,2 56807  69.9994 134.2210 0002874 271.1143  88.9687 14.98326073 57794,6950.205,96.107,574.068,570.073,0.0
56807.0,STARLINK-6073,PAYLOAD,2024-06-09 07:16:45,14.98327871,0.0002764,69.9995,133.8845,266.9217,93.1626,-8.2751e-05,-1.08e-05,0.0,0 STARLINK-6073,1 56807U 23078AS  24161.30330765 -.00001080  00000-0 -82751-4 0  9995,2 56807  69.9995 133.8845 0002764 266.9217  93.1626 14.98327871 57558,6950.199,96.107,573.986,570.143,0.0
56807.0,STARLINK-6073,PAYLOAD,2024-06-09 23:18:06,14.98330145,0.0002989,69.9988,132.2002,268.9412,91.1405,-3.1421e-05,-4.68e-06,0.0,0 STARLINK-6073,1 56807U 23078AS  24161.97090420 -.00000468  00000-0 -31421-4 0  9996,2 56807  69.9988 132.2002 0002989 268.9412  91.1405 14.98330145 57658,6950.192,96.107,574.135,569.98,0.0
56807.0,STARLINK-6073,PAYLOAD,2024-06-10 04:06:30,14.98332515,0.0003021,69.9988,131.6958,269.9572,90.124,-1.6656e-06,-1.13e-06,0.0,0 STARLINK-6073,1 56807U 23078AS  24162.17118182 -.00000113  00000-0 -16656-5 0  9996,2 56807  69.9988 131.6958 0003021 269.9572  90.1240 14.98332515 57948,6950.185,96.107,574.15,569.95,0.0
56807.0,STARLINK-6073,PAYLOAD,2024-06-10 07:18:46,14.98332542,0.0003022,69.9991,131.3593,269.8116,90.2697,5.7833e-06,-2.4e-07,0.0,0 STARLINK-6073,1 56807U 23078AS  24162.30470112 -.00000024  00000-0  57833-5 0  9997,2 56807  69.9991 131.3593 0003022 269.8116  90.2697 14.98332542 57709,6950.185,96.107,574.15,569.95,0.0
56807.0,STARLINK-6073,PAYLOAD,2024-06-10 15:19:26,14.98332812,0.0002878,69.9997,130.5158,272.5797,87.5032,-4.6806e-05,-6.51e-06,0.0,0 STARLINK-6073,1 56807U 23078AS  24162.63850211 -.00000651  00000-0 -46806-4 0  9999,2 56807  69.9997 130.5158 0002878 272.5797  87.5032 14.98332812 57754,6950.184,96.107,574.049,570.049,0.0
56807.0,STARLINK-6073,PAYLOAD,2024-06-11 04:08:31,14.98338021,0.0003026,69.9987,129.1711,270.8879,89.1933,-0.00018065,-2.248e-05,0.0,0 STARLINK-6073,1 56807U 23078AS  24163.17258363 -.00002248  00000-0 -18065-3 0  9998,2 56807  69.9987 129.1711 0003026 270.8879  89.1933 14.98338021 58094,6950.168,96.106,574.136,569.93,0.0
56807.0,STARLINK-6073,PAYLOAD,2024-06-11 07:20:47,14.98338515,0.0003007,69.999,128.8349,272.0164,88.065,-0.00014014,-1.765e-05,0.0,0 STARLINK-6073,1 56807U 23078AS  24163.30610172 -.00001765  00000-0 -14014-3 0  9996,2 56807  69.9990 128.8349 0003007 272.0164  88.0650 14.98338515 57856,6950.167,96.106,574.121,569.942,0.0
56807.0,STARLINK-6073,PAYLOAD,2024-06-12 04:10:32,14.98331419,0.0003057,69.9989,126.6469,271.1867,88.8941,-1.1785e-05,-2.34e-06,0.0,0 STARLINK-6073,1 56807U 23078AS  24164.17398368 -.00000234  00000-0 -11785-4 0  9995,2 56807  69.9989 126.6469 0003057 271.1867  88.8941 14.98331419 58249,6950.189,96.107,574.178,569.929,0.0
56807.0,STARLINK-6073,PAYLOAD,2024-06-12 05:46:40,14.9833282,0.0003047,69.999,126.4787,271.2437,88.8373,4.2413e-06,-4.2e-07,0.0,0 STARLINK-6073,1 56807U 23078AS  24164.24074224 -.00000042  00000-0  42413-5 0  9994,2 56807  69.9990 126.4787 0003047 271.2437  88.8373 14.98332820 57992,6950.184,96.107,574.167,569.931,0.0
56807.0,STARLINK-6073,PAYLOAD,2024-06-12 21:48:01,14.98326936,0.0002998,69.9988,124.7941,270.2294,89.8521,1.2545e-05,5.7e-07,0.0,0 STARLINK-6073,1 56807U 23078AS  24164.90834528  .00000057  00000-0  12545-4 0  9995,2 56807  69.9988 124.7941 0002998 270.2294  89.8521 14.98326936 58095,6950.202,96.107,574.151,569.984,0.0
56807.0,STARLINK-6073,PAYLOAD,2024-06-13 04:12:33,14.98329835,0.000299,69.9988,124.1212,270.5715,89.5101,1.6664e-05,1.06e-06,0.0,0 STARLINK-6073,1 56807U 23078AS  24165.17538372  .00000106  00000-0  16664-4 0  9994,2 56807  69.9988 124.1212 0002990 270.5715  89.5101 14.98329835 58398,6950.193,96.107,574.137,569.98,0.0
56807.0,STARLINK-6073,PAYLOAD,2024-06-13 07:24:49,14.98330975,0.000297,69.9989,123.7845,270.4213,89.6605,2.9618e-05,2.6e-06,0.0,0 STARLINK-6073,1 56807U 23078AS  24165.30890259  .00000260  00000-0  29618-4 0  9998,2 56807  69.9989 123.7845 0002970 270.4213  89.6605 14.98330975 58157,6950.19,96.107,574.119,569.991,0.0
56807.0,STARLINK-6073,PAYLOAD,2024-06-13 21:50:01,14.98331509,0.0002838,69.9993,122.2696,272.8615,87.2219,1.1558e-05,4.5e-07,0.0,0 STARLINK-6073,1 56807U 23078AS  24165.90974282  .00000045  00000-0  11558-4 0  9998,2 56807  69.9993 122.2696 0002838 272.8615  87.2219 14.98331509 58244,6950.188,96.107,574.026,570.081,0.0
56807.0,STARLINK-6073,PAYLOAD,2024-06-14 13:51:22,14.9832988,0.000279,69.9995,120.5863,273.6,86.484,-1.612e-05,-2.85e-06,0.0,0 STARLINK-6073,1 56807U 23078AS  24166.57734358 -.00000285  00000-0 -16120-4 0  9998,2 56807  69.9995 120.5863 0002790 273.6000  86.4840 14.98329880 58348,6950.193,96.107,573.997,570.119,0.0
56807.0,STARLINK-6073,PAYLOAD,2024-06-14 21:52:02,14.98330856,0.0002832,69.9992,119.7447,272.913,87.1705,1.4496e-05,8e-07,0.0,0 STARLINK-6073,1 56807U 23078AS  24166.91114166  .00000080  00000-0  14496-4 0  9990,2 56807  69.9992 119.7447 0002832 272.9130  87.1705 14.98330856 58394,6950.19,96.107,574.024,570.087,0.0
56807.0,STARLINK-6073,PAYLOAD,2024-06-15 05:52:42,14.98331674,0.0002836,69.9994,118.9032,272.7536,87.3299,1.8796e-05,1.31e-06,0.0,0 STARLINK-6073,1 56807U 23078AS  24167.24494060  .00000131  00000-0  18796-4 0  9995,2 56807  69.9994 118.9032 0002836 272.7536  87.3299 14.98331674 58444,6950.188,96.107,574.024,570.082,0.0
56807.0,STARLINK-6073,PAYLOAD,2024-06-15 21:54:03,14.98331988,0.0002784,69.9995,117.2198,268.3073,91.7767,-2.0373e-05,-3.36e-06,0.0,0 STARLINK-6073,1 56807U 23078AS  24167.91254035 -.00000336  00000-0 -20373-4 0  9998,2 56807  69.9995 117.2198 0002784 268.3073  91.7767 14.98331988 58547,6950.187,96.107,573.987,570.117,0.0
